$$SOE
2461281.500000000, A.D. 2026-Aug-29 00:00:00.0000, -3.126348961983732E+09, -5.245435777970979E+09, -1.033766179046559E+09,
2461288.500000000, A.D. 2026-Sep-05 00:00:00.0000, -3.124547542642264E+09, -5.247140836025622E+09, -1.034897322421492E+09,
2461295.500000000, A.D. 2026-Sep-12 00:00:00.0000, -3.122745455778801E+09, -5.248844870317208E+09, -1.036028254371801E+09,
2461302.500000000, A.D. 2026-Sep-19 00:00:00.0000, -3.120942703543344E+09, -5.250547881853769E+09, -1.037158974586904E+09,
2461309.500000000, A.D. 2026-Sep-26 00:00:00.0000, -3.119139287707181E+09, -5.252249872225739E+09, -1.038289482804454E+09,
2461316.500000000, A.D. 2026-Oct-03 00:00:00.0000, -3.117335209592640E+09, -5.253950843370584E+09, -1.039419778800649E+09,
2461323.500000000, A.D. 2026-Oct-10 00:00:00.0000, -3.115530470089431E+09, -5.255650797430127E+09, -1.040549862381119E+09,
2461330.500000000, A.D. 2026-Oct-17 00:00:00.0000, -3.113725069705934E+09, -5.257349736681418E+09, -1.041679733375467E+09,
2461337.500000000, A.D. 2026-Oct-24 00:00:00.0000, -3.111919008631043E+09, -5.259047663563682E+09, -1.042809391639456E+09,
2461344.500000000, A.D. 2026-Oct-31 00:00:00.0000, -3.110112286707794E+09, -5.260744580867997E+09, -1.043938837079242E+09,
2461351.500000000, A.D. 2026-Nov-07 00:00:00.0000, -3.108304902979711E+09, -5.262440492015619E+09, -1.045068069722517E+09,
2461358.500000000, A.D. 2026-Nov-14 00:00:00.0000, -3.106496854609018E+09, -5.264135400537491E+09, -1.046197089782262E+09,
2461365.500000000, A.D. 2026-Nov-21 00:00:00.0000, -3.104688136978423E+09, -5.265829308073113E+09, -1.047325897491000E+09,
2461372.500000000, A.D. 2026-Nov-28 00:00:00.0000, -3.102878745974613E+09, -5.267522213896803E+09, -1.048454492859563E+09,
2461379.500000000, A.D. 2026-Dec-05 00:00:00.0000, -3.101068678833889E+09, -5.269214116627679E+09, -1.049582875745679E+09,
2461386.500000000, A.D. 2026-Dec-12 00:00:00.0000, -3.099257933385044E+09, -5.270905015012394E+09, -1.050711045993036E+09,
2461393.500000000, A.D. 2026-Dec-19 00:00:00.0000, -3.097446507576718E+09, -5.272594907774196E+09, -1.051839003466860E+09,
2461400.500000000, A.D. 2026-Dec-26 00:00:00.0000, -3.095634399431693E+09, -5.274283793396358E+09, -1.052966748043748E+09,
2461407.500000000, A.D. 2027-Jan-02 00:00:00.0000, -3.093821607152522E+09, -5.275971670031074E+09, -1.054094279596420E+09,
2461414.500000000, A.D. 2027-Jan-09 00:00:00.0000, -3.092008129262179E+09, -5.277658535513747E+09, -1.055221597982380E+09,
2461421.500000000, A.D. 2027-Jan-16 00:00:00.0000, -3.090193964745445E+09, -5.279344387474144E+09, -1.056348703038924E+09,
2461428.500000000, A.D. 2027-Jan-23 00:00:00.0000, -3.088379113146425E+09, -5.281029223584190E+09, -1.057475594591916E+09,
2461435.500000000, A.D. 2027-Jan-30 00:00:00.0000, -3.086563574436100E+09, -5.282713041990410E+09, -1.058602272499515E+09,
2461442.500000000, A.D. 2027-Feb-06 00:00:00.0000, -3.084747348226809E+09, -5.284395841591125E+09, -1.059728736742077E+09,
2461449.500000000, A.D. 2027-Feb-13 00:00:00.0000, -3.082930432795535E+09, -5.286077620938866E+09, -1.060854987416510E+09,
2461456.500000000, A.D. 2027-Feb-20 00:00:00.0000, -3.081112826281187E+09, -5.287758376559095E+09, -1.061981024483049E+09,
2461463.500000000, A.D. 2027-Feb-27 00:00:00.0000, -3.079294528660935E+09, -5.289438103898952E+09, -1.063106847655350E+09,
2461470.500000000, A.D. 2027-Mar-06 00:00:00.0000, -3.077475541488063E+09, -5.291116798983479E+09, -1.064232456553763E+09,
2461477.500000000, A.D. 2027-Mar-13 00:00:00.0000, -3.075655866991913E+09, -5.292794458729849E+09, -1.065357850807763E+09,
2461484.500000000, A.D. 2027-Mar-20 00:00:00.0000, -3.073835507669470E+09, -5.294471080754258E+09, -1.066483030072288E+09,
2461491.500000000, A.D. 2027-Mar-27 00:00:00.0000, -3.072014466166617E+09, -5.296146663220424E+09, -1.067607994021568E+09,
2461498.500000000, A.D. 2027-Apr-03 00:00:00.0000, -3.070192745246179E+09, -5.297821204777407E+09, -1.068732742343021E+09,
2461505.500000000, A.D. 2027-Apr-10 00:00:00.0000, -3.068370347781497E+09, -5.299494704563720E+09, -1.069857274735060E+09,
2461512.500000000, A.D. 2027-Apr-17 00:00:00.0000, -3.066547276753470E+09, -5.301167162292011E+09, -1.070981590912017E+09,
2461519.500000000, A.D. 2027-Apr-24 00:00:00.0000, -3.064723535171843E+09, -5.302838578476508E+09, -1.072105690628574E+09,
2461526.500000000, A.D. 2027-May-01 00:00:00.0000, -3.062899125621111E+09, -5.304508954775374E+09, -1.073229573748918E+09,
2461533.500000000, A.D. 2027-May-08 00:00:00.0000, -3.061074049123642E+09, -5.306178293699626E+09, -1.074353240327631E+09,
2461540.500000000, A.D. 2027-May-15 00:00:00.0000, -3.059248304816901E+09, -5.307846596735145E+09, -1.075476690487089E+09,
2461547.500000000, A.D. 2027-May-22 00:00:00.0000, -3.057421892008625E+09, -5.309513863469406E+09, -1.076599924159705E+09,
2461554.500000000, A.D. 2027-May-29 00:00:00.0000, -3.055594811254022E+09, -5.311180093191172E+09, -1.077722941122746E+09,
2461561.500000000, A.D. 2027-Jun-05 00:00:00.0000, -3.053767063570185E+09, -5.312845285831387E+09, -1.078845741150816E+09,
2461568.500000000, A.D. 2027-Jun-12 00:00:00.0000, -3.051938649795196E+09, -5.314509441813518E+09, -1.079968324066513E+09,
2461575.500000000, A.D. 2027-Jun-19 00:00:00.0000, -3.050109570422993E+09, -5.316172561748304E+09, -1.081090689735161E+09,
2461582.500000000, A.D. 2027-Jun-26 00:00:00.0000, -3.048279825634555E+09, -5.317834646234269E+09, -1.082212838050416E+09,
2461589.500000000, A.D. 2027-Jul-03 00:00:00.0000, -3.046449415393278E+09, -5.319495695755673E+09, -1.083334768921960E+09,
2461596.500000000, A.D. 2027-Jul-10 00:00:00.0000, -3.044618339567714E+09, -5.321155710669191E+09, -1.084456482267745E+09,
2461603.500000000, A.D. 2027-Jul-17 00:00:00.0000, -3.042786598045311E+09, -5.322814691318185E+09, -1.085577978016996E+09,
2461610.500000000, A.D. 2027-Jul-24 00:00:00.0000, -3.040954190680731E+09, -5.324472638337357E+09, -1.086699256143265E+09,
2461617.500000000, A.D. 2027-Jul-31 00:00:00.0000, -3.039121116667314E+09, -5.326129552912294E+09, -1.087820316745749E+09,
2461624.500000000, A.D. 2027-Aug-07 00:00:00.0000, -3.037287373532421E+09, -5.327785435842152E+09, -1.088941160066176E+09,
2461631.500000000, A.D. 2027-Aug-14 00:00:00.0000, -3.035452958057764E+09, -5.329440285658792E+09, -1.090061786250808E+09,
2461638.500000000, A.D. 2027-Aug-21 00:00:00.0000, -3.033617868506495E+09, -5.331094099166603E+09, -1.091182195189147E+09,
2461645.500000000, A.D. 2027-Aug-28 00:00:00.0000, -3.031782104726027E+09, -5.332746873199683E+09, -1.092302386645725E+09,
2461652.500000000, A.D. 2027-Sep-04 00:00:00.0000, -3.029945667307689E+09, -5.334398605094203E+09, -1.093422360372287E+09,
2461659.500000000, A.D. 2027-Sep-11 00:00:00.0000, -3.028108557198564E+09, -5.336049292537161E+09, -1.094542116126617E+09,
2461666.500000000, A.D. 2027-Sep-18 00:00:00.0000, -3.026270775632309E+09, -5.337698933441641E+09, -1.095661653663624E+09,
2461673.500000000, A.D. 2027-Sep-25 00:00:00.0000, -3.024432324150105E+09, -5.339347525925968E+09, -1.096780972726264E+09,
2461680.500000000, A.D. 2027-Oct-02 00:00:00.0000, -3.022593204636652E+09, -5.340995068368862E+09, -1.097900073041218E+09,
2461687.500000000, A.D. 2027-Oct-09 00:00:00.0000, -3.020753419348723E+09, -5.342641559544698E+09, -1.099018954321980E+09,
2461694.500000000, A.D. 2027-Oct-16 00:00:00.0000, -3.018912970872980E+09, -5.344286998893336E+09, -1.100137616289889E+09,
2461701.500000000, A.D. 2027-Oct-23 00:00:00.0000, -3.017071861753065E+09, -5.345931386929801E+09, -1.101256058737571E+09,
2461708.500000000, A.D. 2027-Oct-30 00:00:00.0000, -3.015230093411104E+09, -5.347574725183147E+09, -1.102374281619435E+09,
2461715.500000000, A.D. 2027-Nov-06 00:00:00.0000, -3.013387665526962E+09, -5.349217014536100E+09, -1.103492284970416E+09,
2461722.500000000, A.D. 2027-Nov-13 00:00:00.0000, -3.011544577860593E+09, -5.350858254041414E+09, -1.104610068640614E+09,
2461729.500000000, A.D. 2027-Nov-20 00:00:00.0000, -3.009700831615570E+09, -5.352498442400702E+09, -1.105727632290636E+09,
2461736.500000000, A.D. 2027-Nov-27 00:00:00.0000, -3.007856428726205E+09, -5.354137579141113E+09, -1.106844975553685E+09,
2461743.500000000, A.D. 2027-Dec-04 00:00:00.0000, -3.006011371091793E+09, -5.355775664575875E+09, -1.107962098104111E+09,
2461750.500000000, A.D. 2027-Dec-11 00:00:00.0000, -3.004165660308543E+09, -5.357412699512579E+09, -1.109078999660620E+09,
2461757.500000000, A.D. 2027-Dec-18 00:00:00.0000, -3.002319297624223E+09, -5.359048685048212E+09, -1.110195679977025E+09,
2461764.500000000, A.D. 2027-Dec-25 00:00:00.0000, -3.000472283963528E+09, -5.360683622452998E+09, -1.111312138834552E+09,
2461771.500000000, A.D. 2028-Jan-01 00:00:00.0000, -2.998624619982743E+09, -5.362317513128359E+09, -1.112428376038197E+09,
$$EOE